IRIDIUM 921 [-]         
1 24873U 97034E   24050.83728240  .00028836  00000+0  92846-3 0  9990
2 24873  86.3884 346.3389 0004940  33.6233 326.5329 15.32066833457021
IRIDIUM 26 [-]          
1 24903U 97043A   24050.96385817  .00000624  00000+0  20726-3 0  9990
2 24903  86.3978 313.3914 0001923  85.6338 274.5078 14.36215034387362
IRIDIUM 22 [-]          
1 24907U 97043E   24050.78889262  .00000680  00000+0  23161-3 0  9995
2 24907  86.3986 316.6074 0002154  83.8576 276.2866 14.35111942387422
DUMMY MASS 1 [-]        
1 24925U 97048A   24050.88970011  .00000851  00000+0  94054-4 0  9994
2 24925  86.3389 358.6319 0009056  66.8867 293.3311 14.86057811433336
DUMMY MASS 2 [-]        
1 24926U 97048B   24050.90714310  .00000844  00000+0  93824-4 0  9992
2 24926  86.3389   0.1449 0010012  74.6313 285.6017 14.85817138433126
IRIDIUM 29 [-]          
1 24944U 97051A   24050.89887616  .00000725  00000+0  24505-3 0  9991
2 24944  86.4009 346.4884 0002372  80.8986 279.2479 14.35566248383910
IRIDIUM 28 [-]          
1 24948U 97051E   24050.91130381  .00000732  00000+0  24273-3 0  9998
2 24948  86.4015 344.2779 0001856  92.8580 267.2830 14.36514544384449
